{
  "type": "FeatureCollection",
  "features": [
    {
      "type": "Feature",
      "properties": {
        "name": "G3140次",
        "name_en": "G3140 High-Speed Rail",
        "from": "内江北",
        "to": "太原南",
        "ref": "G3140"
      },
      "geometry": {
        "type": "MultiLineString",
        "coordinates": [
          [
            [105.0819528, 29.6122750],
            [105.05, 29.65],
            [104.95, 29.75],
            [104.85, 29.85],
            [104.75, 29.95],
            [104.6808056, 30.1285778],
            [104.62, 30.20],
            [104.56, 30.28],
            [104.5154611, 30.3560306],
            [104.45, 30.42],
            [104.35, 30.50],
            [104.25, 30.56],
            [104.1388500, 30.6310056],
            [104.18, 30.72],
            [104.22, 30.82],
            [104.28, 30.92],
            [104.32, 31.02],
            [104.3864889, 31.1680528],
            [104.50, 31.30],
            [104.70, 31.50],
            [104.90, 31.70],
            [105.10, 31.90],
            [105.30, 32.10],
            [105.50, 32.25],
            [105.65, 32.35],
            [105.8179, 32.4526],
            [105.90, 32.55],
            [106.00, 32.65],
            [106.10, 32.75],
            [106.25, 32.85],
            [106.40, 32.92],
            [106.55, 32.98],
            [106.70, 33.02],
            [106.85, 33.05],
            [107.0255111, 33.0925833],
            [107.20, 33.20],
            [107.40, 33.35],
            [107.60, 33.50],
            [107.80, 33.65],
            [108.00, 33.80],
            [108.20, 33.95],
            [108.40, 34.10],
            [108.60, 34.22],
            [108.80, 34.32],
            [108.934083, 34.377556],
            [109.10, 34.45],
            [109.30, 34.55],
            [109.50, 34.65],
            [109.70, 34.75],
            [109.90, 34.85],
            [110.10, 34.92],
            [110.30, 34.98],
            [110.50, 35.02],
            [110.70, 35.06],
            [110.97699, 35.09917],
            [111.05, 35.20],
            [111.15, 35.40],
            [111.25, 35.60],
            [111.35, 35.80],
            [111.45944, 36.10167],
            [111.55, 36.30],
            [111.65, 36.50],
            [111.80, 36.70],
            [111.95, 36.90],
            [112.10, 37.10],
            [112.25, 37.30],
            [112.40, 37.50],
            [112.50, 37.65],
            [112.6051083, 37.7915139]
          ]
        ]
      }
    },
    {
      "type": "Feature",
      "properties": {
        "name": "内江北",
        "order": 1,
        "type": "station",
        "arr": null,
        "dep": "15:00"
      },
      "geometry": {
        "type": "Point",
        "coordinates": [105.0819528, 29.6122750]
      }
    },
    {
      "type": "Feature",
      "properties": {
        "name": "资阳北",
        "order": 2,
        "type": "station",
        "arr": "15:20",
        "dep": "15:22"
      },
      "geometry": {
        "type": "Point",
        "coordinates": [104.6808056, 30.1285778]
      }
    },
    {
      "type": "Feature",
      "properties": {
        "name": "简阳南",
        "order": 3,
        "type": "station",
        "arr": "15:33",
        "dep": "15:38"
      },
      "geometry": {
        "type": "Point",
        "coordinates": [104.5154611, 30.3560306]
      }
    },
    {
      "type": "Feature",
      "properties": {
        "name": "成都东",
        "order": 4,
        "type": "station",
        "arr": "15:58",
        "dep": "16:02"
      },
      "geometry": {
        "type": "Point",
        "coordinates": [104.1388500, 30.6310056]
      }
    },
    {
      "type": "Feature",
      "properties": {
        "name": "德阳",
        "order": 5,
        "type": "station",
        "arr": "16:26",
        "dep": "16:28"
      },
      "geometry": {
        "type": "Point",
        "coordinates": [104.3864889, 31.1680528]
      }
    },
    {
      "type": "Feature",
      "properties": {
        "name": "广元",
        "order": 6,
        "type": "station",
        "arr": "17:32",
        "dep": "17:37"
      },
      "geometry": {
        "type": "Point",
        "coordinates": [105.8179, 32.4526]
      }
    },
    {
      "type": "Feature",
      "properties": {
        "name": "汉中",
        "order": 7,
        "type": "station",
        "arr": "18:21",
        "dep": "18:23"
      },
      "geometry": {
        "type": "Point",
        "coordinates": [107.0255111, 33.0925833]
      }
    },
    {
      "type": "Feature",
      "properties": {
        "name": "西安北",
        "order": 8,
        "type": "station",
        "arr": "19:33",
        "dep": "19:42"
      },
      "geometry": {
        "type": "Point",
        "coordinates": [108.934083, 34.377556]
      }
    },
    {
      "type": "Feature",
      "properties": {
        "name": "运城北",
        "order": 9,
        "type": "station",
        "arr": "20:44",
        "dep": "20:47"
      },
      "geometry": {
        "type": "Point",
        "coordinates": [110.97699, 35.09917]
      }
    },
    {
      "type": "Feature",
      "properties": {
        "name": "临汾西",
        "order": 10,
        "type": "station",
        "arr": "21:23",
        "dep": "21:26"
      },
      "geometry": {
        "type": "Point",
        "coordinates": [111.45944, 36.10167]
      }
    },
    {
      "type": "Feature",
      "properties": {
        "name": "太原南",
        "order": 11,
        "type": "station",
        "arr": "22:36",
        "dep": null
      },
      "geometry": {
        "type": "Point",
        "coordinates": [112.6051083, 37.7915139]
      }
    }
  ]
}
